BEIJING 1               
1 28890U 05043A   22274.59450058  .00000301  00000+0  70148-4 0  9999
2 28890  98.1313  35.1190 0014927 197.2804 162.7889 14.61499440902641
HJ-1A                   
1 33320U 08041A   22274.58274338  .00000393  00000+0  61182-4 0  9997
2 33320  97.6707 302.6302 0019617 245.5783 114.3390 14.77924478758063
HJ-1B                   
1 33321U 08041B   22274.53404535  .00000896  00000+0  13039-3 0  9992
2 33321  97.6867 306.3623 0032772 265.5917  94.1568 14.77895542758056
YAOGAN 4                
1 33446U 08061A   22274.43746423  .00000791  00000+0  11776-3 0  9996
2 33446  97.8230 211.3732 0016936 146.5505 213.6779 14.77481596745240
DEIMOS-1                
1 35681U 09041A   22274.56876331  .00000339  00000+0  61216-4 0  9997
2 35681  97.7027 120.1442 0000490 164.6947 195.4280 14.72118496707388
UK-DMC 2                
1 35683U 09041C   22274.50375808  .00000556  00000+0  96966-4 0  9997
2 35683  97.7065  81.8942 0001015  67.4112 292.7213 14.71506907707102
RISAT 1                 
1 38248U 12017A   22274.53479955  .00004068  00000+0  23717-3 0  9990
2 38248  97.5533 284.7743 0002289 241.4072 118.6928 15.12534259574856
DMC3-FM1                
1 40715U 15032A   22274.59269062  .00000467  00000+0  65074-4 0  9996
2 40715  97.8304 159.2453 0006155 160.4959 199.6495 14.82204140389010
DMC3-FM2                
1 40716U 15032B   22274.54823024  .00000469  00000+0  65378-4 0  9995
2 40716  97.8341 159.8969 0007950 166.6147 193.5282 14.82196771389018
DMC3-FM3                
1 40717U 15032C   22274.56933348  .00000474  00000+0  65905-4 0  9991
2 40717  97.8378 160.8758 0009975 166.3860 193.7624 14.82224378389012
